[{"OBJECT_NAME":"SKYSAT-A","OBJECT_ID":"2013-066C","EPOCH":"2026-03-04T01:51:48.422592","MEAN_MOTION":15.12304975,"ECCENTRICITY":0.00205408,"INCLINATION":97.3964,"RA_OF_ASC_NODE":115.7952,"ARG_OF_PERICENTER":321.1305,"MEAN_ANOMALY":38.8448,"EPHEMERIS_TYPE":0,"CLASSIFICATION_TYPE":"U","NORAD_CAT_ID":39418,"ELEMENT_SET_NO":999,"REV_AT_EPOCH":67259,"BSTAR":0.00030990229,"MEAN_MOTION_DOT":5.329e-5,"MEAN_MOTION_DDOT":0},{"OBJECT_NAME":"SKYSAT-B","OBJECT_ID":"2014-037D","EPOCH":"2026-03-04T09:59:16.593792","MEAN_MOTION":14.87701718,"ECCENTRICITY":0.00042069,"INCLINATION":98.3722,"RA_OF_ASC_NODE":16.5076,"ARG_OF_PERICENTER":255.9673,"MEAN_ANOMALY":104.1074,"EPHEMERIS_TYPE":0,"CLASSIFICATION_TYPE":"U","NORAD_CAT_ID":40072,"ELEMENT_SET_NO":999,"REV_AT_EPOCH":63038,"BSTAR":0.00035068097,"MEAN_MOTION_DOT":3.135e-5,"MEAN_MOTION_DDOT":0},{"OBJECT_NAME":"SKYSAT-C1","OBJECT_ID":"2016-040C","EPOCH":"2026-03-04T13:10:40.031616","MEAN_MOTION":15.34386901,"ECCENTRICITY":0.00039278,"INCLINATION":96.9701,"RA_OF_ASC_NODE":101.0001,"ARG_OF_PERICENTER":63.5583,"MEAN_ANOMALY":296.6063,"EPHEMERIS_TYPE":0,"CLASSIFICATION_TYPE":"U","NORAD_CAT_ID":41601,"ELEMENT_SET_NO":999,"REV_AT_EPOCH":54181,"BSTAR":0.00040036662,"MEAN_MOTION_DOT":0.0001327,"MEAN_MOTION_DDOT":0},{"OBJECT_NAME":"SKYSAT-C4","OBJECT_ID":"2016-058B","EPOCH":"2026-03-04T14:30:20.510784","MEAN_MOTION":15.4516281,"ECCENTRICITY":8.416e-5,"INCLINATION":96.929,"RA_OF_ASC_NODE":89.9386,"ARG_OF_PERICENTER":89.9832,"MEAN_ANOMALY":270.1515,"EPHEMERIS_TYPE":0,"CLASSIFICATION_TYPE":"U","NORAD_CAT_ID":41771,"ELEMENT_SET_NO":999,"REV_AT_EPOCH":52930,"BSTAR":0.00047356943,"MEAN_MOTION_DOT":0.00022402,"MEAN_MOTION_DDOT":0},{"OBJECT_NAME":"SKYSAT-C5","OBJECT_ID":"2016-058C","EPOCH":"2026-03-04T13:01:21.178272","MEAN_MOTION":15.34172728,"ECCENTRICITY":0.00018637,"INCLINATION":97.062,"RA_OF_ASC_NODE":108.8291,"ARG_OF_PERICENTER":85.2729,"MEAN_ANOMALY":274.8728,"EPHEMERIS_TYPE":0,"CLASSIFICATION_TYPE":"U","NORAD_CAT_ID":41772,"ELEMENT_SET_NO":999,"REV_AT_EPOCH":52770,"BSTAR":0.00039509488,"MEAN_MOTION_DOT":0.00013001,"MEAN_MOTION_DDOT":0},{"OBJECT_NAME":"SKYSAT-C2","OBJECT_ID":"2016-058D","EPOCH":"2026-03-04T01:17:30.262272","MEAN_MOTION":15.39520258,"ECCENTRICITY":0.00052845,"INCLINATION":97.028,"RA_OF_ASC_NODE":89.2282,"ARG_OF_PERICENTER":81.1583,"MEAN_ANOMALY":279.0262,"EPHEMERIS_TYPE":0,"CLASSIFICATION_TYPE":"U","NORAD_CAT_ID":41773,"ELEMENT_SET_NO":999,"REV_AT_EPOCH":52886,"BSTAR":0.00045017291,"MEAN_MOTION_DOT":0.00017629,"MEAN_MOTION_DDOT":0},{"OBJECT_NAME":"SKYSAT-C3","OBJECT_ID":"2016-058E","EPOCH":"2026-03-04T01:32:18.355776","MEAN_MOTION":15.48020744,"ECCENTRICITY":0.00015282,"INCLINATION":96.9182,"RA_OF_ASC_NODE":98.1747,"ARG_OF_PERICENTER":100.848,"MEAN_ANOMALY":259.2944,"EPHEMERIS_TYPE":0,"CLASSIFICATION_TYPE":"U","NORAD_CAT_ID":41774,"ELEMENT_SET_NO":999,"REV_AT_EPOCH":52982,"BSTAR":0.00058203259,"MEAN_MOTION_DOT":0.00030426,"MEAN_MOTION_DDOT":0},{"OBJECT_NAME":"SKYSAT-C11","OBJECT_ID":"2017-068A","EPOCH":"2026-03-04T14:58:20.659008","MEAN_MOTION":15.52016345,"ECCENTRICITY":7.476e-5,"INCLINATION":97.4194,"RA_OF_ASC_NODE":208.4424,"ARG_OF_PERICENTER":87.693,"MEAN_ANOMALY":272.4408,"EPHEMERIS_TYPE":0,"CLASSIFICATION_TYPE":"U","NORAD_CAT_ID":42987,"ELEMENT_SET_NO":999,"REV_AT_EPOCH":46699,"BSTAR":0.00063252852,"MEAN_MOTION_DOT":0.00038102,"MEAN_MOTION_DDOT":0},{"OBJECT_NAME":"SKYSAT-C10","OBJECT_ID":"2017-068B","EPOCH":"2026-03-04T07:30:16.863552","MEAN_MOTION":15.32525278,"ECCENTRICITY":0.00011438,"INCLINATION":97.4329,"RA_OF_ASC_NODE":199.3999,"ARG_OF_PERICENTER":90.4216,"MEAN_ANOMALY":269.7157,"EPHEMERIS_TYPE":0,"CLASSIFICATION_TYPE":"U","NORAD_CAT_ID":42988,"ELEMENT_SET_NO":999,"REV_AT_EPOCH":46628,"BSTAR":0.00057448426,"MEAN_MOTION_DOT":0.00017986,"MEAN_MOTION_DDOT":0},{"OBJECT_NAME":"SKYSAT-C9","OBJECT_ID":"2017-068C","EPOCH":"2026-03-04T09:08:15.307008","MEAN_MOTION":15.38684553,"ECCENTRICITY":0.00097051,"INCLINATION":97.4254,"RA_OF_ASC_NODE":199.4601,"ARG_OF_PERICENTER":150.2472,"MEAN_ANOMALY":209.9327,"EPHEMERIS_TYPE":0,"CLASSIFICATION_TYPE":"U","NORAD_CAT_ID":42989,"ELEMENT_SET_NO":999,"REV_AT_EPOCH":46662,"BSTAR":0.00062538401,"MEAN_MOTION_DOT":0.000239,"MEAN_MOTION_DDOT":0},{"OBJECT_NAME":"SKYSAT-C8","OBJECT_ID":"2017-068D","EPOCH":"2026-03-04T08:52:13.013184","MEAN_MOTION":15.34600559,"ECCENTRICITY":0.00017105,"INCLINATION":97.4357,"RA_OF_ASC_NODE":198.8789,"ARG_OF_PERICENTER":108.5724,"MEAN_ANOMALY":251.5705,"EPHEMERIS_TYPE":0,"CLASSIFICATION_TYPE":"U","NORAD_CAT_ID":42990,"ELEMENT_SET_NO":999,"REV_AT_EPOCH":46622,"BSTAR":0.00024537475,"MEAN_MOTION_DOT":8.146e-5,"MEAN_MOTION_DDOT":0},{"OBJECT_NAME":"SKYSAT-C7","OBJECT_ID":"2017-068E","EPOCH":"2026-03-04T14:53:17.200608","MEAN_MOTION":15.34558146,"ECCENTRICITY":0.00074103,"INCLINATION":97.4359,"RA_OF_ASC_NODE":200.1125,"ARG_OF_PERICENTER":119.3141,"MEAN_ANOMALY":240.8843,"EPHEMERIS_TYPE":0,"CLASSIFICATION_TYPE":"U","NORAD_CAT_ID":42991,"ELEMENT_SET_NO":999,"REV_AT_EPOCH":46632,"BSTAR":0.0005197391,"MEAN_MOTION_DOT":0.00017354,"MEAN_MOTION_DDOT":0},{"OBJECT_NAME":"SKYSAT-C6","OBJECT_ID":"2017-068F","EPOCH":"2026-03-04T14:37:41.639808","MEAN_MOTION":15.32597474,"ECCENTRICITY":0.00035726,"INCLINATION":97.4394,"RA_OF_ASC_NODE":200.4012,"ARG_OF_PERICENTER":124.0525,"MEAN_ANOMALY":236.1056,"EPHEMERIS_TYPE":0,"CLASSIFICATION_TYPE":"U","NORAD_CAT_ID":42992,"ELEMENT_SET_NO":999,"REV_AT_EPOCH":46629,"BSTAR":0.00049751613,"MEAN_MOTION_DOT":0.00015599,"MEAN_MOTION_DDOT":0},{"OBJECT_NAME":"SKYSAT-C12","OBJECT_ID":"2018-099AR","EPOCH":"2026-03-04T01:27:34.289856","MEAN_MOTION":15.45361946,"ECCENTRICITY":0.00049348,"INCLINATION":96.9377,"RA_OF_ASC_NODE":90.7179,"ARG_OF_PERICENTER":152.7288,"MEAN_ANOMALY":207.4222,"EPHEMERIS_TYPE":0,"CLASSIFICATION_TYPE":"U","NORAD_CAT_ID":43797,"ELEMENT_SET_NO":999,"REV_AT_EPOCH":40560,"BSTAR":0.00049588745,"MEAN_MOTION_DOT":0.00023634,"MEAN_MOTION_DDOT":0},{"OBJECT_NAME":"SKYSAT-C13","OBJECT_ID":"2018-099AW","EPOCH":"2026-03-04T09:29:35.275488","MEAN_MOTION":15.75658283,"ECCENTRICITY":0.00033828,"INCLINATION":96.9412,"RA_OF_ASC_NODE":111.0229,"ARG_OF_PERICENTER":219.4781,"MEAN_ANOMALY":140.6239,"EPHEMERIS_TYPE":0,"CLASSIFICATION_TYPE":"U","NORAD_CAT_ID":43802,"ELEMENT_SET_NO":999,"REV_AT_EPOCH":40633,"BSTAR":0.00075728724,"MEAN_MOTION_DOT":0.00116745,"MEAN_MOTION_DDOT":0},{"OBJECT_NAME":"FLOCK 4Q-16","OBJECT_ID":"2023-174R","EPOCH":"2026-03-04T04:25:13.116576","MEAN_MOTION":15.44433782,"ECCENTRICITY":0.0007878,"INCLINATION":97.3873,"RA_OF_ASC_NODE":149.2222,"ARG_OF_PERICENTER":175.6207,"MEAN_ANOMALY":184.5111,"EPHEMERIS_TYPE":0,"CLASSIFICATION_TYPE":"U","NORAD_CAT_ID":58271,"ELEMENT_SET_NO":999,"REV_AT_EPOCH":12934,"BSTAR":0.00079005057,"MEAN_MOTION_DOT":0.00036612,"MEAN_MOTION_DDOT":0}]
